IRIDIUM 166             
1 43570U 18061B   25116.84674127  .00000018  00000+0 -51713-6 0  9991
2 43570  86.3993 230.6680 0002312 102.1912 257.9543 14.34216751353727
IRIDIUM 158             
1 43571U 18061C   25117.23363987  .00000055  00000+0  12700-4 0  9996
2 43571  86.3994 230.5162 0002031  99.4345 260.7080 14.34217856353757
IRIDIUM 165             
1 43572U 18061D   25117.39854686  .00000576  00000+0  19871-3 0  9998
2 43572  86.3997 230.4856 0002397  99.1708 260.9759 14.34220223353796
IRIDIUM 155             
1 43573U 18061E   25117.22095468  .00000013  00000+0 -23654-5 0  9999
2 43573  86.3991 230.4495 0001975 102.7357 257.4059 14.34217594353748
IRIDIUM 154             
1 43574U 18061F   25116.85308399  .00000125  00000+0  37625-4 0  9993
2 43574  86.3994 230.7162 0002209  95.7741 264.3706 14.34217175353735
IRIDIUM 163             
1 43575U 18061G   25117.39219697  .00000407  00000+0  13810-3 0  9998
2 43575  86.3992 230.4196 0001984  94.5277 265.6146 14.34215282353782
IRIDIUM 156             
1 43576U 18061H   25116.80868329  .00000335  00000+0  11261-3 0  9994
2 43576  86.3995 230.6700 0002118 106.0592 254.0837 14.34216344353697
IRIDIUM 164             
1 43577U 18061J   25117.34780676 -.00000003  00000+0 -82985-5 0  9990
2 43577  86.3995 230.4788 0002341  98.5766 261.5695 14.34217586353816
